IRIDIUM 144             
1 43249U 18030A   24272.49998328  .00000699  00000+0  24256-3 0  9998
2 43249  86.4041 192.3191 0002380  87.3039 272.8429 14.34226149340317
IRIDIUM 149             
1 43250U 18030B   24272.50633167  .00001046  00000+0  36640-3 0  9996
2 43250  86.4041 192.2907 0002588  83.6293 276.5197 14.34214164340333
IRIDIUM 157             
1 43251U 18030C   24272.52536437  .00000844  00000+0  29415-3 0  9998
2 43251  86.4039 192.3218 0002395  75.4146 284.7315 14.34222992340318
IRIDIUM 140             
1 43252U 18030D   24272.54438841  .00000456  00000+0  15569-3 0  9995
2 43252  86.4042 192.3282 0002032  89.0504 271.0925 14.34219610340376
IRIDIUM 145             
1 43253U 18030E   24272.53169598  .00000926  00000+0  32360-3 0  9995
2 43253  86.4041 192.3069 0002528  91.3675 268.7810 14.34224141340308
IRIDIUM 146             
1 43254U 18030F   24272.51266713  .00000827  00000+0  28826-3 0  9993
2 43254  86.4036 192.3295 0002502  91.1099 269.0384 14.34213790340313
IRIDIUM 148             
1 43255U 18030G   24272.55073047  .00000371  00000+0  12526-3 0  9998
2 43255  86.4042 192.3471 0002451  85.8026 274.3450 14.34215953340350
IRIDIUM 142             
1 43256U 18030H   24272.51902629  .00000853  00000+0  29747-3 0  9990
2 43256  86.4038 192.2721 0002609  88.9435 271.2059 14.34222468340312
